NORAD_CAT_ID,OBJECT_NAME,OBJECT_TYPE,EPOCH,MEAN_MOTION,ECCENTRICITY,INCLINATION,RA_OF_ASC_NODE,ARG_OF_PERICENTER,MEAN_ANOMALY,BSTAR,MEAN_MOTION_DOT,MEAN_MOTION_DDOT,TLE_LINE0,TLE_LINE1,TLE_LINE2,SEMIMAJOR_AXIS,PERIOD,APOGEE,PERIGEE,DECAYED
52292.0,STARLINK-3753,PAYLOAD,2022-08-04 22:00:00,15.08811131,0.0001676999999999,53.2162,232.3721,70.4848,175.5896,0.0025491,0.00040482,0.0,0 STARLINK-3753,1 52292U 22041AH  22216.91667824  .00040482  00000-0  25491-2 0  9996,2 52292  53.2162 232.3721 0001677  70.4848 175.5896 15.08811131  1307,6917.969,95.439,540.994,538.673,0.0
52292.0,STARLINK-3753,PAYLOAD,2022-08-05 14:00:01,15.0884003,0.0001771999999999,53.2158,229.381,63.8223,205.4808,-0.0004437,-7.343e-05,0.0,0 STARLINK-3753,1 52292U 22041AH  22217.58335648 -.00007343  00000-0 -44370-3 0  9995,2 52292  53.2158 229.3810 0001772  63.8223 205.4808 15.08840030 17646,6917.88,95.438,540.971,538.519,0.0
52292.0,STARLINK-3753,PAYLOAD,2022-08-05 22:00:00,15.08813849,0.0001682,53.2159,227.8831,72.0579,208.7826,0.0026655,0.00042358,0.0,0 STARLINK-3753,1 52292U 22041AH  22217.91667824  .00042358  00000-0  26655-2 0  9994,2 52292  53.2159 227.8831 0001682  72.0579 208.7826 15.08813849  1309,6917.96,95.439,540.989,538.6619999999998,0.0
52292.0,STARLINK-3753,PAYLOAD,2022-08-06 11:04:06,15.08833431,0.0001735,53.2163,225.4395,68.3902,291.7274,4.0596e-05,3.58e-06,0.0,0 STARLINK-3753,1 52292U 22041AH  22218.46118750  .00000358  00000-0  40596-4 0  9990,2 52292  53.2163 225.4395 0001735  68.3902 291.7274 15.08833431 16551,6917.9,95.438,540.966,538.565,0.0
52292.0,STARLINK-3753,PAYLOAD,2022-08-06 22:00:00,15.08817221,0.0001715,53.2152,223.3942,73.4674,242.1513,0.0027355,0.00043489,0.0,0 STARLINK-3753,1 52292U 22041AH  22218.91667824  .00043489  00000-0  27355-2 0  9999,2 52292  53.2152 223.3942 0001715  73.4674 242.1513 15.08817221 17843,6917.95,95.439,541.001,538.629,0.0
52292.0,STARLINK-3753,PAYLOAD,2022-08-07 14:00:01,15.08853558,0.0001804,53.2146,220.4029,65.6356,273.1626,-0.0014418,-0.0002316999999999,0.0,0 STARLINK-3753,1 52292U 22041AH  22219.58334491 -.00023170  00000-0 -14418-2 0  9997,2 52292  53.2146 220.4029 0001804  65.6356 273.1626 15.08853558 17942,6917.839,95.437,540.952,538.456,0.0
52292.0,STARLINK-3753,PAYLOAD,2022-08-07 22:00:00,15.08823303,0.000177,53.2145,218.9051,73.7358,276.6731,0.0027805,0.00044222,0.0,0 STARLINK-3753,1 52292U 22041AH  22219.91667824  .00044222  00000-0  27805-2 0  9996,2 52292  53.2145 218.9051 0001770  73.7358 276.6731 15.08823303  1305,6917.931,95.439,541.021,538.572,0.0
52292.0,STARLINK-3753,PAYLOAD,2022-08-08 06:00:00,15.0885552,0.0001893,53.2145,217.4103,68.3839,293.6222,-0.0011787,-0.00019006,0.0,0 STARLINK-3753,1 52292U 22041AH  22220.25001157 -.00019006  00000-0 -11787-2 0  9992,2 52292  53.2145 217.4103 0001893  68.3839 293.6222 15.08855520 18046,6917.833000000001,95.437,541.007,538.388,0.0
52292.0,STARLINK-3753,PAYLOAD,2022-08-08 14:00:01,15.08867456,0.000185,53.2143,215.9135,65.7886,307.8845,-0.0014301,-0.00022993,0.0,0 STARLINK-3753,1 52292U 22041AH  22220.58335648 -.00022993  00000-0 -14301-2 0  9997,2 52292  53.2143 215.9135 0001850  65.7886 307.8845 15.08867456  1309,6917.795999999999,95.436,540.941,538.382,0.0
52292.0,STARLINK-3753,PAYLOAD,2022-08-08 22:00:00,15.08851872,0.0001781999999999,53.2143,214.4157,72.9512,312.2815,2.637300000000001e-05,1.32e-06,0.0,0 STARLINK-3753,1 52292U 22041AH  22220.91667824  .00000132  00000-0  26373-4 0  9991,2 52292  53.2143 214.4157 0001782  72.9512 312.2815 15.08851872 18149,6917.844,95.437,540.942,538.476,0.0
52292.0,STARLINK-3753,PAYLOAD,2022-08-09 14:00:01,15.08851917,0.0001810999999999,53.2144,211.424,64.3312,344.0985,-0.0016339,-0.00026206,0.0,0 STARLINK-3753,1 52292U 22041AH  22221.58334491 -.00026206  00000-0 -16339-2 0  9997,2 52292  53.2144 211.4240 0001811  64.3312 344.0985 15.08851917  1307,6917.844,95.437,540.962,538.456,0.0
52292.0,STARLINK-3753,PAYLOAD,2022-08-09 22:00:00,15.08838223,0.0001743,53.2146,209.9262,71.315,348.7155,-0.00022005,-3.788e-05,0.0,0 STARLINK-3753,1 52292U 22041AH  22221.91667824 -.00003788  00000-0 -22005-3 0  9991,2 52292  53.2146 209.9262 0001743  71.3150 348.7155 15.08838223  1302,6917.886,95.438,540.957,538.545,0.0
52292.0,STARLINK-3753,PAYLOAD,2022-08-10 14:00:01,15.0883907,0.0001774999999999,53.2148,206.9346,63.6612,19.5316,-0.0017296,-0.00027709,0.0,0 STARLINK-3753,1 52292U 22041AH  22222.58334491 -.00027709  00000-0 -17296-2 0  9990,2 52292  53.2148 206.9346 0001775  63.6612  19.5316 15.08839070  1309,6917.8830000000025,95.438,540.976,538.52,0.0
52292.0,STARLINK-3753,PAYLOAD,2022-08-10 22:00:00,15.08821831,0.0001848,53.2171,205.4439,65.0825,29.6779,0.0015431,0.00024344,0.0,0 STARLINK-3753,1 52292U 22041AH  22222.91667824  .00024344  00000-0  15431-2 0  9995,2 52292  53.2171 205.4439 0001848  65.0825  29.6779 15.08821831  1306,6917.936,95.439,541.0790000000002,538.5219999999998,0.0
52292.0,STARLINK-3753,PAYLOAD,2022-08-11 06:00:02,15.08833548,0.0001868,53.2154,203.9423,65.0431,41.3782,-0.00049644,-8.179e-05,0.0,0 STARLINK-3753,1 52292U 22041AH  22223.25002315 -.00008179  00000-0 -49644-3 0  9995,2 52292  53.2154 203.9423 0001868  65.0431  41.3782 15.08833548 18501,6917.9,95.438,541.057,538.4730000000002,0.0
52292.0,STARLINK-3753,PAYLOAD,2022-08-11 14:00:01,15.08851578,0.0001809,53.2154,202.4453,65.2477,52.6906,-0.0018963,-0.00030351,0.0,0 STARLINK-3753,1 52292U 22041AH  22223.58334491 -.00030351  00000-0 -18963-2 0  9990,2 52292  53.2154 202.4453 0001809  65.2477  52.6906 15.08851578  1301,6917.845,95.437,540.961,538.4590000000002,0.0
52292.0,STARLINK-3753,PAYLOAD,2022-08-11 22:00:00,15.0883244,0.0001776999999999,53.2159,200.9477,72.5039,57.0304,0.0016116,0.00025448,0.0,0 STARLINK-3753,1 52292U 22041AH  22223.91667824  .00025448  00000-0  16116-2 0  9993,2 52292  53.2159 200.9477 0001777  72.5039  57.0304 15.08832440 18603,6917.903,95.438,540.998,538.539,0.0
52292.0,STARLINK-3753,PAYLOAD,2022-08-12 14:00:01,15.08869636,0.0001784,53.2159,197.9559,67.3903,85.34899999999998,-0.0017957999999999,-0.00028778,0.0,0 STARLINK-3753,1 52292U 22041AH  22224.58334491 -.00028778  00000-0 -17958-2 0  9994,2 52292  53.2159 197.9559 0001784  67.3903  85.3490 15.08869636  1305,6917.79,95.436,540.889,538.4209999999998,0.0
52292.0,STARLINK-3753,PAYLOAD,2022-08-12 20:00:01,15.08847142,0.0001673,53.2161,196.8326,72.6892,358.8304,0.00016755,2.380000000000001e-05,0.0,0 STARLINK-3753,1 52292U 22041AH  22224.83335648  .00002380  00000-0  16755-3 0  9991,2 52292  53.2161 196.8326 0001673  72.6892 358.8304 15.08847142 18747,6917.859,95.437,540.881,538.566,0.0
52292.0,STARLINK-3753,PAYLOAD,2022-08-12 22:00:01,15.08861423,0.0001705,53.2164,196.4586,74.1595,90.2566,-0.0016675999999999,-0.00026746,0.0,0 STARLINK-3753,1 52292U 22041AH  22224.91668981 -.00026746  00000-0 -16676-2 0  9994,2 52292  53.2164 196.4586 0001705  74.1595  90.2566 15.08861423  1306,6917.815,95.436,540.859,538.5,0.0
52292.0,STARLINK-3753,PAYLOAD,2022-08-13 14:00:01,15.08845683,0.0001593,53.2161,193.4667,67.104,120.4397,-0.0041181,-0.00065245,0.0,0 STARLINK-3753,1 52292U 22041AH  22225.58334491 -.00065245  00000-0 -41181-2 0  9990,2 52292  53.2161 193.4667 0001593  67.1040 120.4397 15.08845683  1300,6917.863,95.437,540.83,538.626,0.0
52292.0,STARLINK-3753,PAYLOAD,2022-08-13 22:00:00,15.08811312,0.0001554999999999,53.2164,191.9699,74.0913,125.0231,0.00078652,0.00012242,0.0,0 STARLINK-3753,1 52292U 22041AH  22225.91667824  .00012242  00000-0  78652-3 0  9997,2 52292  53.2164 191.9699 0001555  74.0913 125.0231 15.08811312  1305,6917.968000000003,95.439,540.909,538.757,0.0
52292.0,STARLINK-3753,PAYLOAD,2022-08-14 06:00:02,15.08807319,0.0001658,53.2162,190.4753,65.5924,145.1596,0.00095627,0.0001495,0.0,0 STARLINK-3753,1 52292U 22041AH  22226.25002315  .00014950  00000-0  95627-3 0  9992,2 52292  53.2162 190.4753 0001658  65.5924 145.1596 15.08807319 18957,6917.98,95.44,540.992,538.698,0.0
52292.0,STARLINK-3753,PAYLOAD,2022-08-14 14:00:01,15.08837548,0.0001573,53.216,188.9779,68.6942,153.5591,-0.0017655,-0.00028274,0.0,0 STARLINK-3753,1 52292U 22041AH  22226.58334491 -.00028274  00000-0 -17655-2 0  9991,2 52292  53.2160 188.9779 0001573  68.6942 153.5591 15.08837548  1301,6917.888000000001,95.438,540.841,538.665,0.0
52292.0,STARLINK-3753,PAYLOAD,2022-08-14 22:00:00,15.08831814,0.0001599,53.2161,187.4812,75.4286,158.4008,0.00060436,9.341e-05,0.0,0 STARLINK-3753,1 52292U 22041AH  22226.91667824  .00009341  00000-0  60436-3 0  9995,2 52292  53.2161 187.4812 0001599  75.4286 158.4008 15.08831814  1306,6917.905,95.438,540.877,538.664,0.0
52292.0,STARLINK-3753,PAYLOAD,2022-08-15 14:00:01,15.08849872,0.0001619,53.2159,184.489,69.5739,187.4273,-0.001614,-0.0002589,0.0,0 STARLINK-3753,1 52292U 22041AH  22227.58334491 -.00025890  00000-0 -16140-2 0  9991,2 52292  53.2159 184.4890 0001619  69.5739 187.4273 15.08849872  1305,6917.85,95.437,540.835,538.595,0.0
52292.0,STARLINK-3753,PAYLOAD,2022-08-15 22:00:00,15.08848752,0.0001666999999999,53.2159,182.9923,75.2527,193.3408,0.0003168,4.759e-05,0.0,0 STARLINK-3753,1 52292U 22041AH  22227.91667824  .00004759  00000-0  31680-3 0  9993,2 52292  53.2159 182.9923 0001667  75.2527 193.3408 15.08848752  1309,6917.854,95.437,540.872,538.565,0.0
52292.0,STARLINK-3753,PAYLOAD,2022-08-16 06:00:02,15.08834423,0.0001761999999999,53.2159,181.4975,66.6881,213.5816,0.001993,0.00031568,0.0,0 STARLINK-3753,1 52292U 22041AH  22228.25002315  .00031568  00000-0  19930-2 0  9990,2 52292  53.2159 181.4975 0001762  66.6881 213.5816 15.08834423 19254,6917.897,95.438,540.981,538.544,0.0
52292.0,STARLINK-3753,PAYLOAD,2022-08-16 14:00:01,15.08868759,0.0001610999999999,53.2159,179.9999,68.9945,222.8136,-0.0038593,-0.00061235,0.0,0 STARLINK-3753,1 52292U 22041AH  22228.58334491 -.00061235  00000-0 -38593-2 0  9991,2 52292  53.2159 179.9999 0001611  68.9945 222.8136 15.08868759  1305,6917.792,95.436,540.7719999999998,538.543,0.0
